STARLINK-1829           
1 46726U 20073BJ  21046.58334491  .00015204  00000-0  11558-2 0  9991
2 46726  53.0531 258.0897 0002698  56.6092  15.6828 15.02330384  1758
STARLINK-1830           
1 46727U 20073BK  21046.83334491 -.00006532  00000-0 -81863-4 0  9994
2 46727  53.0573 240.5840 0008332 290.7777 113.2201 15.57034827 19326
STARLINK-1831           
1 46728U 20073BL  21046.83334491 -.00013555  00000-0 -89258-3 0  9993
2 46728  53.0456 247.0380 0001658  72.3619 182.0847 15.06408531 19232
STARLINK-1841           
1 46729U 20073BM  21046.83334491  .00084910  00000-0  10496-2 0  9992
2 46729  53.0534 240.2935 0005250 330.5312 214.1211 15.59411561 19329
FLOCK 4V-22             
1 46735U 20061BL  21046.62103269  .00001392  00000-0  76542-4 0  9999
2 46735  97.4433 122.5421 0007155  29.8659 330.2979 15.15685524 17914
FLOCK 4V-23             
1 46737U 20061BM  21046.46200476  .00000815  00000-0  45881-4 0  9992
2 46737  97.4451 122.5330 0005013  23.5170 336.6291 15.15965350 17820
FLOCK 4V-24             
1 46738U 20061BN  21046.45741749  .00001663  00000-0  91908-4 0  9998
2 46738  97.4596 122.5492 0007992  44.8310 315.3585 15.15247539 17406
STARLINK-1847           
1 46739U 20074A   21046.83334491  .00001333  00000-0  10844-3 0  9990
2 46739  53.0533 336.9570 0002161  74.8390  84.5795 15.06390052 18169
STARLINK-1848           
1 46740U 20074B   21046.58334491  .00002114  00000-0  16078-3 0  9997
2 46740  53.0477 343.1289 0002988  60.0627  80.4549 15.06398517 18067
STARLINK-1865           
1 46741U 20074C   21046.83334491 -.00041539  00000-0 -27837-2 0  9996
2 46741  53.0562 336.9662 0002286  67.2452 252.1954 15.06429585 18174
STARLINK-1872           
1 46742U 20074D   21046.83334491  .00003466  00000-0  25150-3 0  9999
2 46742  53.0531 336.9600 0002472  68.6646  50.7895 15.06395611 18178
STARLINK-1892           
1 46743U 20074E   21046.83334491  .00003094  00000-0  22658-3 0  9997
2 46743  53.0564 336.9646 0009474 358.5983   0.8635 15.06386944 18187
STARLINK-1894           
1 46744U 20074F   21046.83334491 -.00000066  00000-0  14513-4 0  9997
2 46744  53.0571 336.9632 0002424  71.4093 188.0093 15.06395916 18155
STARLINK-1898           
1 46745U 20074G   21046.58334491  .00010215  00000-0  70396-3 0  9996
2 46745  53.0528 338.0808 0002392  65.1759 157.7336 15.06383199 18107
STARLINK-1905           
1 46746U 20074H   21046.83334491  .00000911  00000-0  80071-4 0  9999
2 46746  53.0548 336.9588 0002533  73.0531 106.3745 15.06393834 18173
STARLINK-1908           
1 46747U 20074J   21046.83334491 -.00000067  00000-0  14457-4 0  9998
2 46747  53.0578 336.9647 0002361  73.3407 206.0982 15.06409837 18179
STARLINK-1910           
1 46748U 20074K   21046.83334491  .00000595  00000-0  58921-4 0  9998
2 46748  53.0564 336.9609 0006673   4.3430 235.0622 15.06409714 18170
STARLINK-1911           
1 46749U 20074L   21046.83334491  .00000533  00000-0  54727-4 0  9991
2 46749  53.0547 336.9630 0002301  70.5543 128.8381 15.06401993 18172
STARLINK-1920           
1 46751U 20074N   21046.83334491  .00000892  00000-0  78817-4 0  9998
2 46751  53.0559 336.9604 0002666  75.1966 144.2142 15.06402079 18176
STARLINK-1921           
1 46752U 20074P   21046.83334491  .00001690  00000-0  13245-3 0  9999
2 46752  53.0535 336.9579 0009231   4.2333 160.3457 15.06389462 18176
STARLINK-1922           
1 46753U 20074Q   21046.83334491  .00001684  00000-0  13198-3 0  9990
2 46753  53.0565 336.9658 0002364  75.8191 263.6018 15.06398569 18183
STARLINK-1923           
1 46754U 20074R   21046.83334491  .00000205  00000-0  32707-4 0  9997
2 46754  53.0557 336.9658 0002361  71.5648 227.9046 15.06387866 18173
STARLINK-1924           
1 46755U 20074S   21046.58334491  .00000813  00000-0  73506-4 0  9997
2 46755  53.0551 343.0915 0002516  64.8694 255.7440 15.06378987  1758
STARLINK-1925           
1 46756U 20074T   21046.83334491  .00009529  00000-0  65781-3 0  9994
2 46756  53.0568 341.9674 0002370  67.1377 249.9369 15.06397428 18101
STARLINK-1926           
1 46757U 20074U   21046.83334491 -.00029155  00000-0 -19452-2 0  9997
2 46757  53.0546 341.9789 0002876  66.4104  90.6835 15.06418910 18105
STARLINK-1928           
1 46758U 20074V   21046.58334491  .00001968  00000-0  15106-3 0  9993
2 46758  53.0632 343.0528 0002586  66.0504  29.4139 15.06378764 18079
STARLINK-1833           
1 46759U 20074W   21046.83334491  .00021560  00000-0  14625-2 0  9996
2 46759  53.0484 351.9849 0002080  72.7775 324.1716 15.06382652 17685
STARLINK-1896           
1 46760U 20074X   21046.83334491  .00023362  00000-0  15830-2 0  9999
2 46760  53.0570 351.9636 0002437  63.9724 272.9951 15.06377264 17975
STARLINK-1897           
1 46761U 20074Y   21046.83334491  .00023214  00000-0  15724-2 0  9998
2 46761  53.0572 351.9652 0001888  68.1399 288.7685 15.06394545 17970
STARLINK-1901           
1 46762U 20074Z   21046.58334491 -.00015320  00000-0 -10116-2 0  9992
2 46762  53.0559 353.0798 0002039  64.2388 236.0960 15.06406140  1750
STARLINK-1902           
1 46763U 20074AA  21046.58334491 -.00013941  00000-0 -91846-3 0  9990
2 46763  53.0553 353.0769 0002614  60.6150 299.8155 15.06411306  1763
STARLINK-1903           
1 46764U 20074AB  21046.83334491  .00022572  00000-0  15298-2 0  9993
2 46764  53.0573 351.9632 0002300  72.5498 304.3678 15.06389069 17973
STARLINK-1906           
1 46765U 20074AC  21046.83334491 -.00031336  00000-0 -20934-2 0  9997
2 46765  53.0525 351.9812 0001944  71.6763   5.3048 15.06410858 17676
STARLINK-1916           
1 46766U 20074AD  21046.83334491 -.00015991  00000-0 -10565-2 0  9996
2 46766  53.0556 351.9767 0001801  76.1689  40.7619 15.06418470 17685
STARLINK-1917           
1 46767U 20074AE  21046.58334491 -.00012953  00000-0 -85221-3 0  9996
2 46767  53.0574 353.0882 0001888  76.0512 324.3795 15.06402158  1760
STARLINK-1918           
1 46768U 20074AF  21046.58334491 -.00013409  00000-0 -88277-3 0  9998
2 46768  53.0554 353.0782 0001915  68.7562 311.6732 15.06407091  1763
STARLINK-1919           
1 46769U 20074AG  21046.83334491  .00016823  00000-0  11459-2 0  9995
2 46769  53.0566 351.9613 0002101  69.8097 127.1517 15.06390421 17687
STARLINK-1932           
1 46770U 20074AH  21046.58334491 -.00015452  00000-0 -10205-2 0  9996
2 46770  53.0573 353.0886 0002434  65.0481 200.4942 15.06403350  1750
STARLINK-1935           
1 46771U 20074AJ  21046.58334491 -.00014951  00000-0 -98682-3 0  9996
2 46771  53.0567 353.0822 0002110  65.3040 255.1221 15.06401883  1755
STARLINK-1936           
1 46772U 20074AK  21046.58334491 -.00014540  00000-0 -95889-3 0  9997
2 46772  53.0567 353.0850 0002052  66.9801 273.4681 15.06410960  1753
STARLINK-1937           
1 46773U 20074AL  21046.83334491  .00018129  00000-0  12332-2 0  9992
2 46773  53.0555 351.9781 0002232  69.2465  27.6989 15.06388721 17951
STARLINK-1939           
1 46774U 20074AM  21046.83334491  .00016504  00000-0  11246-2 0  9991
2 46774  53.0556 351.9740 0002412  61.1305  75.7824 15.06388974 17954
STARLINK-1945           
1 46775U 20074AN  21046.58334491 -.00012381  00000-0 -81397-3 0  9990
2 46775  53.0498 353.0974 0002008  62.2979  78.1595 15.06386982 17591
STARLINK-1946           
1 46776U 20074AP  21046.58334491 -.00015358  00000-0 -10139-2 0  9993
2 46776  53.0572 353.0879 0002598  63.1642 197.2300 15.06413867  1751
STARLINK-1949           
1 46777U 20074AQ  21046.58334491 -.00014875  00000-0 -98096-3 0  9996
2 46777  53.0554 353.0941 0006257  66.0686 174.3171 15.06408601  1750
STARLINK-1798           
1 46779U 20074AS  21046.58334491  .00023242  00000-0  15746-2 0  9994
2 46779  53.0413 328.1826 0001486  71.8658 106.1076 15.06387985  1751
STARLINK-1832           
1 46780U 20074AT  21046.58334491  .00023665  00000-0  16026-2 0  9997
2 46780  53.0509 328.1164 0001621  74.6199 163.3324 15.06391831 17995
STARLINK-1834           
1 46781U 20074AU  21046.83334491  .00004381  00000-0  31283-3 0  9993
2 46781  53.0594 336.9299 0002616  71.6494 347.7035 15.06404406 17907
STARLINK-1835           
1 46782U 20074AV  21046.83334491 -.00008524  00000-0 -55385-3 0  9998
2 46782  53.0529 326.9548 0001247  73.9626 140.4774 15.06412017 18022
STARLINK-1851           
1 46783U 20074AW  21046.58334491  .00022424  00000-0  15197-2 0  9990
2 46783  53.0483 328.1275 0001545  74.1434 143.7398 15.06395220  1750
STARLINK-1882           
1 46784U 20074AX  21046.58334491  .00023548  00000-0  15956-2 0  9992
2 46784  53.0450 328.1529 0001517  70.7630 127.2192 15.06373013 17938
STARLINK-1883           
1 46785U 20074AY  21046.58334491  .00025585  00000-0  16374-2 0  9991
2 46785  53.0499 328.0475 0003689 206.9209  88.2382 15.08436399 17934
STARLINK-1893           
1 46786U 20074AZ  21046.83334491 -.00048906  00000-0 -12542-2 0  9997
2 46786  53.0543 324.4271 0001485  67.3364  58.7104 15.38789628 18015
STARLINK-1899           
1 46787U 20074BA  21046.83334491 -.00002749  00000-0 -60506-4 0  9998
2 46787  53.0542 324.4400 0001587  65.4232  58.5884 15.38766013 18011
STARLINK-1929           
1 46788U 20074BB  21046.83334491 -.00008382  00000-0 -20550-3 0  9992
2 46788  53.0544 324.4337 0001331  65.3446  56.6183 15.38773018 18010
STARLINK-1930           
1 46789U 20074BC  21046.83334491  .00002443  00000-0  18283-3 0  9993
2 46789  53.0562 336.9655 0002372  69.2916 275.2440 15.06404669 17835
STARLINK-1931           
1 46790U 20074BD  21046.83334491  .00003785  00000-0  27292-3 0  9995
2 46790  53.0511 336.9892 0002319  78.3780  21.0229 15.06396305 17834
STARLINK-1933           
1 46791U 20074BE  21046.83334491  .00004074  00000-0  29228-3 0  9999
2 46791  53.0580 336.9523 0002283  74.0497 305.3961 15.06392338 17833
STARLINK-1934           
1 46792U 20074BF  21046.58334491  .00025860  00000-0  17494-2 0  9999
2 46792  53.0537 328.0778 0001576  76.7837 241.2057 15.06383662 17936
